CCSDS_OMM_VERS = 2.0
CREATION_DATE  = 
ORIGINATOR     = 

OBJECT_NAME    = STARLINK-36599
OBJECT_ID      = 2026-020X
CENTER_NAME    = EARTH
REF_FRAME      = TEME
TIME_SYSTEM    = UTC
MEAN_ELEMENT_THEORY = SGP/SGP4

EPOCH          = 2026-02-27T17:43:17.714208
MEAN_MOTION    = 15.76420361
ECCENTRICITY   = .00015605
INCLINATION    = 42.9998
RA_OF_ASC_NODE = 201.9235
ARG_OF_PERICENTER = 261.2741
MEAN_ANOMALY   = 98.7952

EPHEMERIS_TYPE = 0
CLASSIFICATION_TYPE = U
NORAD_CAT_ID   = 67638
ELEMENT_SET_NO = 999
REV_AT_EPOCH   = 452
BSTAR          = .65527923E-3
MEAN_MOTION_DOT = .107843E-2
MEAN_MOTION_DDOT = 0

CCSDS_OMM_VERS = 2.0
CREATION_DATE  = 
ORIGINATOR     = 

OBJECT_NAME    = STARLINK-36595
OBJECT_ID      = 2026-020Y
CENTER_NAME    = EARTH
REF_FRAME      = TEME
TIME_SYSTEM    = UTC
MEAN_ELEMENT_THEORY = SGP/SGP4

EPOCH          = 2026-02-27T18:02:13.091424
MEAN_MOTION    = 15.76413018
ECCENTRICITY   = .00014759
INCLINATION    = 42.9986
RA_OF_ASC_NODE = 202.0290
ARG_OF_PERICENTER = 268.8974
MEAN_ANOMALY   = 91.1727

EPHEMERIS_TYPE = 0
CLASSIFICATION_TYPE = U
NORAD_CAT_ID   = 67639
ELEMENT_SET_NO = 999
REV_AT_EPOCH   = 452
BSTAR          = .11316049E-2
MEAN_MOTION_DOT = .188321E-2
MEAN_MOTION_DDOT = 0

CCSDS_OMM_VERS = 2.0
CREATION_DATE  = 
ORIGINATOR     = 

OBJECT_NAME    = STARLINK-36570
OBJECT_ID      = 2026-020Z
CENTER_NAME    = EARTH
REF_FRAME      = TEME
TIME_SYSTEM    = UTC
MEAN_ELEMENT_THEORY = SGP/SGP4

EPOCH          = 2026-02-27T18:33:44.748576
MEAN_MOTION    = 15.76444047
ECCENTRICITY   = .00021572
INCLINATION    = 42.9987
RA_OF_ASC_NODE = 202.2063
ARG_OF_PERICENTER = 257.5374
MEAN_ANOMALY   = 102.5254

EPHEMERIS_TYPE = 0
CLASSIFICATION_TYPE = U
NORAD_CAT_ID   = 67640
ELEMENT_SET_NO = 999
REV_AT_EPOCH   = 452
BSTAR          = .16763262E-2
MEAN_MOTION_DOT = .282763E-2
MEAN_MOTION_DDOT = 0

CCSDS_OMM_VERS = 2.0
CREATION_DATE  = 
ORIGINATOR     = 

OBJECT_NAME    = STARLINK-36514
OBJECT_ID      = 2026-020AA
CENTER_NAME    = EARTH
REF_FRAME      = TEME
TIME_SYSTEM    = UTC
MEAN_ELEMENT_THEORY = SGP/SGP4

EPOCH          = 2026-02-27T19:11:23.084736
MEAN_MOTION    = 15.76419604
ECCENTRICITY   = .00016743
INCLINATION    = 42.9990
RA_OF_ASC_NODE = 201.5202
ARG_OF_PERICENTER = 266.0129
MEAN_ANOMALY   = 94.0549

EPHEMERIS_TYPE = 0
CLASSIFICATION_TYPE = U
NORAD_CAT_ID   = 67641
ELEMENT_SET_NO = 999
REV_AT_EPOCH   = 453
BSTAR          = .10180998E-2
MEAN_MOTION_DOT = .169045E-2
MEAN_MOTION_DDOT = 0

CCSDS_OMM_VERS = 2.0
CREATION_DATE  = 
ORIGINATOR     = 

OBJECT_NAME    = STARLINK-36556
OBJECT_ID      = 2026-020AB
CENTER_NAME    = EARTH
REF_FRAME      = TEME
TIME_SYSTEM    = UTC
MEAN_ELEMENT_THEORY = SGP/SGP4

EPOCH          = 2026-02-27T19:49:13.042560
MEAN_MOTION    = 15.76427035
ECCENTRICITY   = .00013377
INCLINATION    = 42.9991
RA_OF_ASC_NODE = 201.7324
ARG_OF_PERICENTER = 267.4030
MEAN_ANOMALY   = 92.6687

EPHEMERIS_TYPE = 0
CLASSIFICATION_TYPE = U
NORAD_CAT_ID   = 67642
ELEMENT_SET_NO = 999
REV_AT_EPOCH   = 453
BSTAR          = .13113977E-2
MEAN_MOTION_DOT = .219262E-2
MEAN_MOTION_DDOT = 0

CCSDS_OMM_VERS = 2.0
CREATION_DATE  = 
ORIGINATOR     = 

OBJECT_NAME    = STARLINK-36533
OBJECT_ID      = 2026-020AC
CENTER_NAME    = EARTH
REF_FRAME      = TEME
TIME_SYSTEM    = UTC
MEAN_ELEMENT_THEORY = SGP/SGP4

EPOCH          = 2026-02-27T11:00:42.697728
MEAN_MOTION    = 15.76574566
ECCENTRICITY   = .00031958
INCLINATION    = 42.9990
RA_OF_ASC_NODE = 204.1501
ARG_OF_PERICENTER = 266.2840
MEAN_ANOMALY   = 93.7664

EPHEMERIS_TYPE = 0
CLASSIFICATION_TYPE = U
NORAD_CAT_ID   = 67643
ELEMENT_SET_NO = 999
REV_AT_EPOCH   = 447
BSTAR          = .25715984E-2
MEAN_MOTION_DOT = .44511E-2
MEAN_MOTION_DDOT = 0

CCSDS_OMM_VERS = 2.0
CREATION_DATE  = 
ORIGINATOR     = 

OBJECT_NAME    = STARLINK-36623
OBJECT_ID      = 2026-020AD
CENTER_NAME    = EARTH
REF_FRAME      = TEME
TIME_SYSTEM    = UTC
MEAN_ELEMENT_THEORY = SGP/SGP4

EPOCH          = 2026-02-27T18:27:26.361504
MEAN_MOTION    = 15.76406755
ECCENTRICITY   = .00016148
INCLINATION    = 42.9977
RA_OF_ASC_NODE = 202.1703
ARG_OF_PERICENTER = 273.9405
MEAN_ANOMALY   = 86.1280

EPHEMERIS_TYPE = 0
CLASSIFICATION_TYPE = U
NORAD_CAT_ID   = 67644
ELEMENT_SET_NO = 999
REV_AT_EPOCH   = 452
BSTAR          = .92179496E-3
MEAN_MOTION_DOT = .152623E-2
MEAN_MOTION_DDOT = 0

CCSDS_OMM_VERS = 2.0
CREATION_DATE  = 
ORIGINATOR     = 

OBJECT_NAME    = STARLINK-36619
OBJECT_ID      = 2026-020AE
CENTER_NAME    = EARTH
REF_FRAME      = TEME
TIME_SYSTEM    = UTC
MEAN_ELEMENT_THEORY = SGP/SGP4

EPOCH          = 2026-02-27T18:24:15.271488
MEAN_MOTION    = 15.76433569
ECCENTRICITY   = .00013518
INCLINATION    = 42.9994
RA_OF_ASC_NODE = 202.1523
ARG_OF_PERICENTER = 300.8062
MEAN_ANOMALY   = 59.2675

EPHEMERIS_TYPE = 0
CLASSIFICATION_TYPE = U
NORAD_CAT_ID   = 67645
ELEMENT_SET_NO = 999
REV_AT_EPOCH   = 452
BSTAR          = .89199195E-4
MEAN_MOTION_DOT = .14105E-3
MEAN_MOTION_DDOT = 0

CCSDS_OMM_VERS = 2.0
CREATION_DATE  = 
ORIGINATOR     = 

OBJECT_NAME    = ALSAT-3B
OBJECT_ID      = 2026-021A
CENTER_NAME    = EARTH
REF_FRAME      = TEME
TIME_SYSTEM    = UTC
MEAN_ELEMENT_THEORY = SGP/SGP4

EPOCH          = 2026-02-27T22:14:58.949088
MEAN_MOTION    = 15.23784806
ECCENTRICITY   = .00131585
INCLINATION    = 97.4691
RA_OF_ASC_NODE = 133.3074
ARG_OF_PERICENTER = 163.8627
MEAN_ANOMALY   = 196.3032

EPHEMERIS_TYPE = 0
CLASSIFICATION_TYPE = U
NORAD_CAT_ID   = 67646
ELEMENT_SET_NO = 999
REV_AT_EPOCH   = 423
BSTAR          = .31072855E-3
MEAN_MOTION_DOT = .7425E-4
MEAN_MOTION_DDOT = 0

CCSDS_OMM_VERS = 2.0
CREATION_DATE  = 
ORIGINATOR     = 

OBJECT_NAME    = CZ-2C R/B
OBJECT_ID      = 2026-021B
CENTER_NAME    = EARTH
REF_FRAME      = TEME
TIME_SYSTEM    = UTC
MEAN_ELEMENT_THEORY = SGP/SGP4

EPOCH          = 2026-02-27T22:19:45.148224
MEAN_MOTION    = 15.23802631
ECCENTRICITY   = .01522342
INCLINATION    = 97.6532
RA_OF_ASC_NODE = 134.2069
ARG_OF_PERICENTER = 45.2744
MEAN_ANOMALY   = 316.0769

EPHEMERIS_TYPE = 0
CLASSIFICATION_TYPE = U
NORAD_CAT_ID   = 67647
ELEMENT_SET_NO = 999
REV_AT_EPOCH   = 421
BSTAR          = .38868063E-3
MEAN_MOTION_DOT = .12932E-3
MEAN_MOTION_DDOT = 0

CCSDS_OMM_VERS = 2.0
CREATION_DATE  = 
ORIGINATOR     = 

OBJECT_NAME    = STARLINK-36719
OBJECT_ID      = 2026-022A
CENTER_NAME    = EARTH
REF_FRAME      = TEME
TIME_SYSTEM    = UTC
MEAN_ELEMENT_THEORY = SGP/SGP4

EPOCH          = 2026-02-27T16:31:57.411552
MEAN_MOTION    = 15.75206298
ECCENTRICITY   = .00027523
INCLINATION    = 97.2838
RA_OF_ASC_NODE = 92.1587
ARG_OF_PERICENTER = 71.2123
MEAN_ANOMALY   = 288.9441

EPHEMERIS_TYPE = 0
CLASSIFICATION_TYPE = U
NORAD_CAT_ID   = 67648
ELEMENT_SET_NO = 999
REV_AT_EPOCH   = 397
BSTAR          = .20771706E-2
MEAN_MOTION_DOT = .3219E-2
MEAN_MOTION_DDOT = 0

CCSDS_OMM_VERS = 2.0
CREATION_DATE  = 
ORIGINATOR     = 

OBJECT_NAME    = STARLINK-36342
OBJECT_ID      = 2026-022B
CENTER_NAME    = EARTH
REF_FRAME      = TEME
TIME_SYSTEM    = UTC
MEAN_ELEMENT_THEORY = SGP/SGP4

EPOCH          = 2026-02-27T01:16:07.328640
MEAN_MOTION    = 15.75233276
ECCENTRICITY   = .00015996
INCLINATION    = 97.2833
RA_OF_ASC_NODE = 91.4929
ARG_OF_PERICENTER = 112.6970
MEAN_ANOMALY   = 247.4465

EPHEMERIS_TYPE = 0
CLASSIFICATION_TYPE = U
NORAD_CAT_ID   = 67649
ELEMENT_SET_NO = 999
REV_AT_EPOCH   = 387
BSTAR          = .16044155E-2
MEAN_MOTION_DOT = .246683E-2
MEAN_MOTION_DDOT = 0

