STARLINK-36599          
1 67638U 26020X   26058.73839947  .00107843  00000+0  65528-3 0  9992
2 67638  42.9998 201.9235 0001560 261.2741  98.7952 15.76420361  4526
STARLINK-36595          
1 67639U 26020Y   26058.75154041  .00188321  00000+0  11316-2 0  9995
2 67639  42.9986 202.0290 0001475 268.8974  91.1727 15.76413018  4521
STARLINK-36570          
1 67640U 26020Z   26058.77343459  .00282763  00000+0  16763-2 0  9998
2 67640  42.9987 202.2063 0002157 257.5374 102.5254 15.76444047  4529
STARLINK-36514          
1 67641U 26020AA  26058.79957274  .00169045  00000+0  10181-2 0  9992
2 67641  42.9990 201.5202 0001674 266.0129  94.0549 15.76419604  4531
STARLINK-36556          
1 67642U 26020AB  26058.82584540  .00219262  00000+0  13114-2 0  9995
2 67642  42.9991 201.7324 0001337 267.4030  92.6687 15.76427035  4536
STARLINK-36533          
1 67643U 26020AC  26058.45882752  .00445110  00000+0  25716-2 0  9995
2 67643  42.9990 204.1501 0003195 266.2840  93.7664 15.76574566  4472
STARLINK-36623          
1 67644U 26020AD  26058.76905511  .00152623  00000+0  92179-3 0  9991
2 67644  42.9977 202.1703 0001614 273.9405  86.1280 15.76406755  4526
STARLINK-36619          
1 67645U 26020AE  26058.76684342  .00014105  00000+0  89199-4 0  9999
2 67645  42.9994 202.1523 0001351 300.8062  59.2675 15.76433569  4525
ALSAT-3B                
1 67646U 26021A   26058.92707117  .00007425  00000+0  31073-3 0  9999
2 67646  97.4691 133.3074 0013158 163.8627 196.3032 15.23784806  4236
CZ-2C R/B               
1 67647U 26021B   26058.93038366  .00012932  00000+0  38868-3 0  9992
2 67647  97.6532 134.2069 0152234  45.2744 316.0769 15.23802631  4212
STARLINK-36719          
1 67648U 26022A   26058.68885893  .00321900  00000+0  20772-2 0  9993
2 67648  97.2838  92.1587 0002752  71.2123 288.9441 15.75206298  3974
STARLINK-36342          
1 67649U 26022B   26058.05286260  .00246683  00000+0  16044-2 0  9999
2 67649  97.2833  91.4929 0001599 112.6970 247.4465 15.75233276  3871
